{
  "norad_id": 55300,
  "name": "STARLINK-5308",
  "history": [
    {
      "epoch": "2026-03-28T22:03:15.638400Z",
      "apogee_km": 574.1822540260018,
      "perigee_km": 570.0091952934617,
      "latitude_deg": -7.41532789986532e-07,
      "longitude_deg": 178.65976407395146,
      "height_km": 574.5438681391438,
      "semi_major_axis_km": 6950.2327246597315,
      "eccentricity": 0.00030021,
      "inclination_deg": 69.9989,
      "raan_deg": 335.8074,
      "arg_perigee_deg": 269.4295,
      "mean_anomaly_deg": 90.652,
      "mean_motion_rev_day": 14.98317119
    },
    {
      "epoch": "2026-03-29T02:51:39.659328Z",
      "apogee_km": 574.0043452821365,
      "perigee_km": 570.1608738380501,
      "latitude_deg": -5.5127486623372914e-05,
      "longitude_deg": 105.85695419118792,
      "height_km": 574.4078672960725,
      "semi_major_axis_km": 6950.219609560093,
      "eccentricity": 0.0002765,
      "inclination_deg": 69.9994,
      "raan_deg": 335.3021,
      "arg_perigee_deg": 273.0394,
      "mean_anomaly_deg": 87.0448,
      "mean_motion_rev_day": 14.9832136
    },
    {
      "epoch": "2026-03-30T02:53:39.286176Z",
      "apogee_km": 573.958027760732,
      "perigee_km": 570.0560778865956,
      "latitude_deg": -3.3167446373843205e-05,
      "longitude_deg": 101.84690785616348,
      "height_km": 574.4413269430313,
      "semi_major_axis_km": 6950.1440528236635,
      "eccentricity": 0.00028071,
      "inclination_deg": 69.999,
      "raan_deg": 332.7775,
      "arg_perigee_deg": 269.7926,
      "mean_anomaly_deg": 90.2911,
      "mean_motion_rev_day": 14.98345793
    },
    {
      "epoch": "2026-03-30T09:18:12.309408Z",
      "apogee_km": 573.7662397698732,
      "perigee_km": 570.3122801757163,
      "latitude_deg": 5.350817705275396e-05,
      "longitude_deg": 4.772927352887686,
      "height_km": 574.4078347361119,
      "semi_major_axis_km": 6950.1762599727945,
      "eccentricity": 0.00024848,
      "inclination_deg": 70.0005,
      "raan_deg": 332.1043,
      "arg_perigee_deg": 271.9372,
      "mean_anomaly_deg": 88.1503,
      "mean_motion_rev_day": 14.98335378
    },
    {
      "epoch": "2026-03-30T22:07:16.684032Z",
      "apogee_km": 573.9850330581112,
      "perigee_km": 570.0915448612368,
      "latitude_deg": -1.0420557972879098e-05,
      "longitude_deg": 170.63176552745952,
      "height_km": 574.5029132067233,
      "semi_major_axis_km": 6950.175288959674,
      "eccentricity": 0.0002801,
      "inclination_deg": 69.9992,
      "raan_deg": 330.7578,
      "arg_perigee_deg": 268.8988,
      "mean_anomaly_deg": 91.185,
      "mean_motion_rev_day": 14.98335692
    },
    {
      "epoch": "2026-03-31T09:20:12.980832Z",
      "apogee_km": 574.0102902190438,
      "perigee_km": 570.0621748125805,
      "latitude_deg": -5.080329503939525e-05,
      "longitude_deg": 0.7581716597220491,
      "height_km": 574.4651257759052,
      "semi_major_axis_km": 6950.173232515812,
      "eccentricity": 0.00028403,
      "inclination_deg": 69.9989,
      "raan_deg": 329.5794,
      "arg_perigee_deg": 269.9517,
      "mean_anomaly_deg": 90.1316,
      "mean_motion_rev_day": 14.98336357
    },
    {
      "epoch": "2026-04-01T09:22:13.893312Z",
      "apogee_km": 574.1479357147728,
      "perigee_km": 570.0069979354384,
      "latitude_deg": -2.3300207383113975e-05,
      "longitude_deg": -3.2581433824560633,
      "height_km": 575.1583783707099,
      "semi_major_axis_km": 6950.214466825105,
      "eccentricity": 0.0002979,
      "inclination_deg": 69.9988,
      "raan_deg": 327.0539,
      "arg_perigee_deg": 251.5976,
      "mean_anomaly_deg": 108.4859,
      "mean_motion_rev_day": 14.98323023
    },
    {
      "epoch": "2026-04-02T09:24:15.759648Z",
      "apogee_km": 574.0833253850042,
      "perigee_km": 570.0809721859832,
      "latitude_deg": 6.950330714642121e-05,
      "longitude_deg": -7.278120381657403,
      "height_km": 574.5765195819273,
      "semi_major_axis_km": 6950.219148785493,
      "eccentricity": 0.00028793,
      "inclination_deg": 69.9994,
      "raan_deg": 324.5287,
      "arg_perigee_deg": 268.0789,
      "mean_anomaly_deg": 92.0041,
      "mean_motion_rev_day": 14.98321509
    },
    {
      "epoch": "2026-04-02T22:13:19.967520Z",
      "apogee_km": 574.0697202708416,
      "perigee_km": 570.0576474240843,
      "latitude_deg": 3.839033825442832e-05,
      "longitude_deg": 158.58112612903682,
      "height_km": 574.577827650026,
      "semi_major_axis_km": 6950.200683847463,
      "eccentricity": 0.00028863,
      "inclination_deg": 69.9992,
      "raan_deg": 323.1819,
      "arg_perigee_deg": 267.5185,
      "mean_anomaly_deg": 92.5644,
      "mean_motion_rev_day": 14.9832748
    },
    {
      "epoch": "2026-04-03T20:39:10.006272Z",
      "apogee_km": 573.9876394131143,
      "perigee_km": 569.9676930901533,
      "latitude_deg": 5.0466108637694876e-05,
      "longitude_deg": 178.84464506210875,
      "height_km": 575.0348142704765,
      "semi_major_axis_km": 6950.114666251633,
      "eccentricity": 0.0002892,
      "inclination_deg": 69.9989,
      "raan_deg": 320.8251,
      "arg_perigee_deg": 251.7362,
      "mean_anomaly_deg": 108.3483,
      "mean_motion_rev_day": 14.98355296
    },
    {
      "epoch": "2026-04-04T01:27:33.731712Z",
      "apogee_km": 574.1156247159679,
      "perigee_km": 569.8062859797337,
      "latitude_deg": -1.055101187379014e-05,
      "longitude_deg": 106.04326725183422,
      "height_km": 574.6327758465281,
      "semi_major_axis_km": 6950.097955347851,
      "eccentricity": 0.00031002,
      "inclination_deg": 69.9984,
      "raan_deg": 320.32,
      "arg_perigee_deg": 263.4889,
      "mean_anomaly_deg": 96.5917,
      "mean_motion_rev_day": 14.983607
    },
    {
      "epoch": "2026-04-04T22:17:22.964064Z",
      "apogee_km": 574.0897365450692,
      "perigee_km": 570.1468567152906,
      "latitude_deg": -8.583773339148806e-06,
      "longitude_deg": 150.54606057802448,
      "height_km": 574.5983414117605,
      "semi_major_axis_km": 6950.255296630179,
      "eccentricity": 0.00028365,
      "inclination_deg": 69.9993,
      "raan_deg": 318.1334,
      "arg_perigee_deg": 268.4648,
      "mean_anomaly_deg": 91.6186,
      "mean_motion_rev_day": 14.9830982
    },
    {
      "epoch": "2026-04-05T20:43:15.197376Z",
      "apogee_km": 574.3927939627301,
      "perigee_km": 569.6777970774492,
      "latitude_deg": -6.16349994185876e-05,
      "longitude_deg": 170.79868529693712,
      "height_km": 574.0701395260588,
      "semi_major_axis_km": 6950.172295520089,
      "eccentricity": 0.0003392,
      "inclination_deg": 69.998,
      "raan_deg": 315.7749,
      "arg_perigee_deg": 279.5901,
      "mean_anomaly_deg": 80.4874,
      "mean_motion_rev_day": 14.9833666
    },
    {
      "epoch": "2026-04-05T23:55:30.868320Z",
      "apogee_km": 574.2399427513437,
      "perigee_km": 569.8090757859536,
      "latitude_deg": 2.2133015125510537e-05,
      "longitude_deg": 122.26572168034286,
      "height_km": 574.477485399897,
      "semi_major_axis_km": 6950.161509268648,
      "eccentricity": 0.00031876,
      "inclination_deg": 69.9982,
      "raan_deg": 315.4388,
      "arg_perigee_deg": 269.3417,
      "mean_anomaly_deg": 90.7377,
      "mean_motion_rev_day": 14.98340148
    },
    {
      "epoch": "2026-04-07T07:58:12.549216Z",
      "apogee_km": 574.337142166175,
      "perigee_km": 569.8199190842006,
      "latitude_deg": -6.237777509839827e-06,
      "longitude_deg": -3.0911001972069694,
      "height_km": 574.2438783443699,
      "semi_major_axis_km": 6950.215530625187,
      "eccentricity": 0.00032497,
      "inclination_deg": 69.9981,
      "raan_deg": 312.0717,
      "arg_perigee_deg": 276.6651,
      "mean_anomaly_deg": 83.4138,
      "mean_motion_rev_day": 14.98322679
    },
    {
      "epoch": "2026-04-07T20:47:17.032704Z",
      "apogee_km": 574.3181352430101,
      "perigee_km": 569.8018972218615,
      "latitude_deg": 9.422269340300934e-06,
      "longitude_deg": 162.76700976219948,
      "height_km": 574.238829714353,
      "semi_major_axis_km": 6950.197016232435,
      "eccentricity": 0.0003249,
      "inclination_deg": 69.9981,
      "raan_deg": 310.7249,
      "arg_perigee_deg": 276.3229,
      "mean_anomaly_deg": 83.756,
      "mean_motion_rev_day": 14.98328666
    },
    {
      "epoch": "2026-04-08T14:24:43.382304Z",
      "apogee_km": 573.9494455031354,
      "perigee_km": 570.0026153154267,
      "latitude_deg": -2.7024812734068604e-05,
      "longitude_deg": -104.16638706577139,
      "height_km": 573.9482769072779,
      "semi_major_axis_km": 6950.11303040928,
      "eccentricity": 0.00028394,
      "inclination_deg": 69.9972,
      "raan_deg": 308.8751,
      "arg_perigee_deg": 283.3224,
      "mean_anomaly_deg": 76.7618,
      "mean_motion_rev_day": 14.98355825
    },
    {
      "epoch": "2026-04-09T19:15:08.998272Z",
      "apogee_km": 574.3021401778424,
      "perigee_km": 569.7873021317791,
      "latitude_deg": 1.098447444864461e-05,
      "longitude_deg": 179.0100547793819,
      "height_km": 574.2311649883322,
      "semi_major_axis_km": 6950.1817211548105,
      "eccentricity": 0.0003248,
      "inclination_deg": 69.9982,
      "raan_deg": 305.8427,
      "arg_perigee_deg": 276.1304,
      "mean_anomaly_deg": 83.9485,
      "mean_motion_rev_day": 14.98333612
    }
  ]
}